STARLINK-5668           
1 55350U 23013V   26068.04669350 -.00000240  00000+0 -26631-5 0  9992
2 55350  43.0045 303.7464 0001164 265.9049  94.1661 15.02534619171619
QPS-SAR-11 (YAMATSUMI-I)
1 64340U 25125A   26068.25519236  .00007204  00000+0  57385-3 0  9990
2 64340  42.0098  22.3823 0010044 210.0400 149.9850 15.00627459 40603
